DEMO8 (TENZING)         
1 48951U 21059CA  26095.78152365  .00025062  00000+0  41306-3 0  9994
2 48951  97.7051 283.8317 0006428 244.0518 116.0071 15.52284133266064
NAPA-2                  
1 48963U 21059CN  26095.81628704  .00150651  00000+0  93786-3 0  9998
2 48963  97.6828 286.1191 0003915 221.7781 138.3185 15.76499012266340
JILIN-1 GAOFEN 3D03     
1 49006U 21061D   26093.85350728  .00612535  15824-3  15735-2 0  9995
2 49006  97.2936 172.5810 0005366 252.2630 107.8061 15.95231710264538
XINGSHIDAI 10           
1 49007U 21061E   26095.88027244  .00398881  62295-4  12538-2 0  9993
2 49007  97.2936 174.2909 0004608 240.2318 119.8498 15.91360703264825
FENGYUN 3E              
1 49008U 21062A   26095.90244881 -.00000070  00000+0 -12039-4 0  9997
2 49008  98.7512 100.1134 0000878 339.5528  20.5613 14.19897640246326
ISS (NAUKA)             
1 49044U 21066A   26095.81141530  .00008309  00000+0  15990-3 0  9997
2 49044  51.6329 298.2672 0006355 276.3215  83.7049 15.48791307560401
STARLINK-3100           
1 49144U 21082Q   26095.73923756  .00002191  00000+0  19136-3 0  9994
2 49144  69.9999 226.2401 0003114 269.7695  90.3107 14.98324049250039
CUTE                    
1 49263U 21088D   26095.72575196  .00081344  00000+0  64231-3 0  9995
2 49263  97.4187 189.5153 0003507 214.2000 145.9037 15.71140611251114
2021-091B               
1 49316U 21091B   26095.83094887  .00004495  00000+0  22283-3 0  9996
2 49316  97.4484 284.5196 0011893 296.3344  63.6668 15.18187584248006
SDGSAT 1                
1 49387U 21100A   26095.86938817  .00003028  00000+0  14539-3 0  9994
2 49387  97.2713 145.4869 0008114 174.6975 185.4348 15.19559044244930
TEIKYOSAT-4 (OORURI)    
1 49396U 21102B   26095.59441924  .00002439  00000+0  15682-3 0  9999
2 49396  97.3746 127.8860 0012209 175.0819 185.0532 15.09251717241779
Z-SAT                   
1 49399U 21102E   26095.81893535  .00005789  00000+0  28910-3 0  9995
2 49399  97.3405 133.3383 0018010 135.7805 224.4872 15.17715854242468
HIBARI                  
1 49400U 21102F   26095.84897645  .00013210  00000+0  45177-3 0  9999
2 49400  97.3323 142.6255 0013710  98.7396 261.5398 15.30295643243129
KOSEN-1                 
1 49402U 21102H   26095.83003182  .00009153  00000+0  35905-3 0  9994
2 49402  97.3271 139.4157 0015733 103.1014 257.1981 15.25845700242984
GLOBAL-14               
1 49469U 21106A   26095.73704630  .00030674  00000+0  58744-3 0  9994
2 49469  42.0062   0.5332 0015839 243.1641 116.7582 15.47284055246898
GAOFEN-3 02             
1 49495U 21109A   26095.89574736 -.00000109  00000+0 -19778-4 0  9992
2 49495  98.4119 105.0113 0002222 177.8256 182.2943 14.42213060229892
GLOBAL-12               
1 49772U 21115BA  26095.54216699  .00037759  00000+0  67597-3 0  9990
2 49772  53.1974  32.7645 0004043 122.8860 237.2539 15.49627069244623
