[{"OBJECT_NAME":"DEMO8 (TENZING)","OBJECT_ID":"2021-059CA","EPOCH":"2026-04-05T18:45:23.643360","MEAN_MOTION":15.52284133,"ECCENTRICITY":0.0006428,"INCLINATION":97.7051,"RA_OF_ASC_NODE":283.8317,"ARG_OF_PERICENTER":244.0518,"MEAN_ANOMALY":116.0071,"EPHEMERIS_TYPE":0,"CLASSIFICATION_TYPE":"U","NORAD_CAT_ID":48951,"ELEMENT_SET_NO":999,"REV_AT_EPOCH":26606,"BSTAR":0.00041306,"MEAN_MOTION_DOT":0.00025062,"MEAN_MOTION_DDOT":0},{"OBJECT_NAME":"NAPA-2","OBJECT_ID":"2021-059CN","EPOCH":"2026-04-05T19:35:27.200256","MEAN_MOTION":15.76499012,"ECCENTRICITY":0.0003915,"INCLINATION":97.6828,"RA_OF_ASC_NODE":286.1191,"ARG_OF_PERICENTER":221.7781,"MEAN_ANOMALY":138.3185,"EPHEMERIS_TYPE":0,"CLASSIFICATION_TYPE":"U","NORAD_CAT_ID":48963,"ELEMENT_SET_NO":999,"REV_AT_EPOCH":26634,"BSTAR":0.00093786,"MEAN_MOTION_DOT":0.00150651,"MEAN_MOTION_DDOT":0},{"OBJECT_NAME":"JILIN-1 GAOFEN 3D03","OBJECT_ID":"2021-061D","EPOCH":"2026-04-03T20:29:03.028992","MEAN_MOTION":15.9523171,"ECCENTRICITY":0.00053662,"INCLINATION":97.2936,"RA_OF_ASC_NODE":172.581,"ARG_OF_PERICENTER":252.263,"MEAN_ANOMALY":107.8061,"EPHEMERIS_TYPE":0,"CLASSIFICATION_TYPE":"U","NORAD_CAT_ID":49006,"ELEMENT_SET_NO":999,"REV_AT_EPOCH":26453,"BSTAR":0.0015735251,"MEAN_MOTION_DOT":0.00612535,"MEAN_MOTION_DDOT":0.00015824316},{"OBJECT_NAME":"XINGSHIDAI 10","OBJECT_ID":"2021-061E","EPOCH":"2026-04-05T21:07:35.538816","MEAN_MOTION":15.91360703,"ECCENTRICITY":0.0004608,"INCLINATION":97.2936,"RA_OF_ASC_NODE":174.2909,"ARG_OF_PERICENTER":240.2318,"MEAN_ANOMALY":119.8498,"EPHEMERIS_TYPE":0,"CLASSIFICATION_TYPE":"U","NORAD_CAT_ID":49007,"ELEMENT_SET_NO":999,"REV_AT_EPOCH":26482,"BSTAR":0.0012538,"MEAN_MOTION_DOT":0.00398881,"MEAN_MOTION_DDOT":6.2295e-5},{"OBJECT_NAME":"FENGYUN 3E","OBJECT_ID":"2021-062A","EPOCH":"2026-04-05T21:39:31.577184","MEAN_MOTION":14.1989764,"ECCENTRICITY":8.78e-5,"INCLINATION":98.7512,"RA_OF_ASC_NODE":100.1134,"ARG_OF_PERICENTER":339.5528,"MEAN_ANOMALY":20.5613,"EPHEMERIS_TYPE":0,"CLASSIFICATION_TYPE":"U","NORAD_CAT_ID":49008,"ELEMENT_SET_NO":999,"REV_AT_EPOCH":24632,"BSTAR":-1.2039e-5,"MEAN_MOTION_DOT":-7.0e-7,"MEAN_MOTION_DDOT":0},{"OBJECT_NAME":"ISS (NAUKA)","OBJECT_ID":"2021-066A","EPOCH":"2026-04-05T19:28:26.281920","MEAN_MOTION":15.48791307,"ECCENTRICITY":0.0006355,"INCLINATION":51.6329,"RA_OF_ASC_NODE":298.2672,"ARG_OF_PERICENTER":276.3215,"MEAN_ANOMALY":83.7049,"EPHEMERIS_TYPE":0,"CLASSIFICATION_TYPE":"U","NORAD_CAT_ID":49044,"ELEMENT_SET_NO":999,"REV_AT_EPOCH":56040,"BSTAR":0.0001599,"MEAN_MOTION_DOT":8.309e-5,"MEAN_MOTION_DDOT":0},{"OBJECT_NAME":"STARLINK-3100","OBJECT_ID":"2021-082Q","EPOCH":"2026-04-05T17:44:30.125184","MEAN_MOTION":14.98324049,"ECCENTRICITY":0.0003114,"INCLINATION":69.9999,"RA_OF_ASC_NODE":226.2401,"ARG_OF_PERICENTER":269.7695,"MEAN_ANOMALY":90.3107,"EPHEMERIS_TYPE":0,"CLASSIFICATION_TYPE":"U","NORAD_CAT_ID":49144,"ELEMENT_SET_NO":999,"REV_AT_EPOCH":25003,"BSTAR":0.00019136,"MEAN_MOTION_DOT":2.191e-5,"MEAN_MOTION_DDOT":0},{"OBJECT_NAME":"CUTE","OBJECT_ID":"2021-088D","EPOCH":"2026-04-05T17:25:04.969344","MEAN_MOTION":15.71140611,"ECCENTRICITY":0.0003507,"INCLINATION":97.4187,"RA_OF_ASC_NODE":189.5153,"ARG_OF_PERICENTER":214.2,"MEAN_ANOMALY":145.9037,"EPHEMERIS_TYPE":0,"CLASSIFICATION_TYPE":"U","NORAD_CAT_ID":49263,"ELEMENT_SET_NO":999,"REV_AT_EPOCH":25111,"BSTAR":0.00064231,"MEAN_MOTION_DOT":0.00081344,"MEAN_MOTION_DDOT":0},{"OBJECT_NAME":"2021-091B","OBJECT_ID":"2021-091B","EPOCH":"2026-04-05T19:56:33.982368","MEAN_MOTION":15.18187584,"ECCENTRICITY":0.0011893,"INCLINATION":97.4484,"RA_OF_ASC_NODE":284.5196,"ARG_OF_PERICENTER":296.3344,"MEAN_ANOMALY":63.6668,"EPHEMERIS_TYPE":0,"CLASSIFICATION_TYPE":"U","NORAD_CAT_ID":49316,"ELEMENT_SET_NO":999,"REV_AT_EPOCH":24800,"BSTAR":0.00022283,"MEAN_MOTION_DOT":4.495e-5,"MEAN_MOTION_DDOT":0},{"OBJECT_NAME":"SDGSAT 1","OBJECT_ID":"2021-100A","EPOCH":"2026-04-05T20:51:55.137888","MEAN_MOTION":15.19559044,"ECCENTRICITY":0.0008114,"INCLINATION":97.2713,"RA_OF_ASC_NODE":145.4869,"ARG_OF_PERICENTER":174.6975,"MEAN_ANOMALY":185.4348,"EPHEMERIS_TYPE":0,"CLASSIFICATION_TYPE":"U","NORAD_CAT_ID":49387,"ELEMENT_SET_NO":999,"REV_AT_EPOCH":24493,"BSTAR":0.00014539,"MEAN_MOTION_DOT":3.028e-5,"MEAN_MOTION_DDOT":0},{"OBJECT_NAME":"TEIKYOSAT-4 (OORURI)","OBJECT_ID":"2021-102B","EPOCH":"2026-04-05T14:15:57.822336","MEAN_MOTION":15.09251717,"ECCENTRICITY":0.0012209,"INCLINATION":97.3746,"RA_OF_ASC_NODE":127.886,"ARG_OF_PERICENTER":175.0819,"MEAN_ANOMALY":185.0532,"EPHEMERIS_TYPE":0,"CLASSIFICATION_TYPE":"U","NORAD_CAT_ID":49396,"ELEMENT_SET_NO":999,"REV_AT_EPOCH":24177,"BSTAR":0.00015682,"MEAN_MOTION_DOT":2.439e-5,"MEAN_MOTION_DDOT":0},{"OBJECT_NAME":"Z-SAT","OBJECT_ID":"2021-102E","EPOCH":"2026-04-05T19:39:16.014240","MEAN_MOTION":15.17715854,"ECCENTRICITY":0.001801,"INCLINATION":97.3405,"RA_OF_ASC_NODE":133.3383,"ARG_OF_PERICENTER":135.7805,"MEAN_ANOMALY":224.4872,"EPHEMERIS_TYPE":0,"CLASSIFICATION_TYPE":"U","NORAD_CAT_ID":49399,"ELEMENT_SET_NO":999,"REV_AT_EPOCH":24246,"BSTAR":0.0002891,"MEAN_MOTION_DOT":5.789e-5,"MEAN_MOTION_DDOT":0},{"OBJECT_NAME":"HIBARI","OBJECT_ID":"2021-102F","EPOCH":"2026-04-05T20:22:31.565280","MEAN_MOTION":15.30295643,"ECCENTRICITY":0.001371,"INCLINATION":97.3323,"RA_OF_ASC_NODE":142.6255,"ARG_OF_PERICENTER":98.7396,"MEAN_ANOMALY":261.5398,"EPHEMERIS_TYPE":0,"CLASSIFICATION_TYPE":"U","NORAD_CAT_ID":49400,"ELEMENT_SET_NO":999,"REV_AT_EPOCH":24312,"BSTAR":0.00045177,"MEAN_MOTION_DOT":0.0001321,"MEAN_MOTION_DDOT":0},{"OBJECT_NAME":"KOSEN-1","OBJECT_ID":"2021-102H","EPOCH":"2026-04-05T19:55:14.749248","MEAN_MOTION":15.258457,"ECCENTRICITY":0.0015733,"INCLINATION":97.3271,"RA_OF_ASC_NODE":139.4157,"ARG_OF_PERICENTER":103.1014,"MEAN_ANOMALY":257.1981,"EPHEMERIS_TYPE":0,"CLASSIFICATION_TYPE":"U","NORAD_CAT_ID":49402,"ELEMENT_SET_NO":999,"REV_AT_EPOCH":24298,"BSTAR":0.00035905,"MEAN_MOTION_DOT":9.153e-5,"MEAN_MOTION_DDOT":0},{"OBJECT_NAME":"GLOBAL-14","OBJECT_ID":"2021-106A","EPOCH":"2026-04-05T17:41:20.800320","MEAN_MOTION":15.47284055,"ECCENTRICITY":0.0015839,"INCLINATION":42.0062,"RA_OF_ASC_NODE":0.5332,"ARG_OF_PERICENTER":243.1641,"MEAN_ANOMALY":116.7582,"EPHEMERIS_TYPE":0,"CLASSIFICATION_TYPE":"U","NORAD_CAT_ID":49469,"ELEMENT_SET_NO":999,"REV_AT_EPOCH":24689,"BSTAR":0.00058744,"MEAN_MOTION_DOT":0.00030674,"MEAN_MOTION_DDOT":0},{"OBJECT_NAME":"GAOFEN-3 02","OBJECT_ID":"2021-109A","EPOCH":"2026-04-05T21:29:52.571904","MEAN_MOTION":14.4221306,"ECCENTRICITY":0.0002222,"INCLINATION":98.4119,"RA_OF_ASC_NODE":105.0113,"ARG_OF_PERICENTER":177.8256,"MEAN_ANOMALY":182.2943,"EPHEMERIS_TYPE":0,"CLASSIFICATION_TYPE":"U","NORAD_CAT_ID":49495,"ELEMENT_SET_NO":999,"REV_AT_EPOCH":22989,"BSTAR":-1.9778e-5,"MEAN_MOTION_DOT":-1.09e-6,"MEAN_MOTION_DDOT":0},{"OBJECT_NAME":"GLOBAL-12","OBJECT_ID":"2021-115BA","EPOCH":"2026-04-05T13:00:43.227936","MEAN_MOTION":15.49627069,"ECCENTRICITY":0.0004043,"INCLINATION":53.1974,"RA_OF_ASC_NODE":32.7645,"ARG_OF_PERICENTER":122.886,"MEAN_ANOMALY":237.2539,"EPHEMERIS_TYPE":0,"CLASSIFICATION_TYPE":"U","NORAD_CAT_ID":49772,"ELEMENT_SET_NO":999,"REV_AT_EPOCH":24462,"BSTAR":0.00067597,"MEAN_MOTION_DOT":0.00037759,"MEAN_MOTION_DDOT":0}]
